{
  "type": "FeatureCollection",
  "features": [
    {
      "type": "Feature",
      "properties": {
        "norad_id": 66411,
        "name": "ZK-1A R/B",
        "group": "last-30-days",
        "lat": 39.284617537452995,
        "lon": -124.24297120553835,
        "alt_km": 640.9733884183524,
        "timestamp": "2025-12-07T11:27:48.739221+00:00",
        "meta_object_name": "ZK-1A R/B",
        "meta_object_id": "2025-256C",
        "meta_epoch": "2025-12-06T22:01:38.930016",
        "meta_mean_motion": 15.01774496,
        "meta_eccentricity": 0.02289262,
        "meta_inclination": 98.3233,
        "meta_ra_of_asc_node": 48.278,
        "meta_arg_of_pericenter": 264.4251,
        "meta_mean_anomaly": 93.0825,
        "meta_ephemeris_type": 0,
        "meta_classification_type": "U",
        "meta_norad_cat_id": 66411,
        "meta_element_set_no": 999,
        "meta_rev_at_epoch": 417,
        "meta_bstar": 0.00090693768,
        "meta_mean_motion_dot": 0.00020878,
        "meta_mean_motion_ddot": 0,
        "tle_line1": "1 66411U 25256C   25340.91781169  .00020878  00000+0  90694-3 0  9999",
        "tle_line2": "2 66411  98.3233  48.2780 0228926 264.4251  93.0825 15.01774496  4173"
      },
      "geometry": {
        "type": "Point",
        "coordinates": [
          -124.24297120553835,
          39.284617537452995
        ]
      }
    },
    {
      "type": "Feature",
      "properties": {
        "norad_id": 66412,
        "name": "HULIANWANG DIGUI 13A",
        "group": "last-30-days",
        "lat": 11.060967487542914,
        "lon": 94.7271579732836,
        "alt_km": 825.4096598489514,
        "timestamp": "2025-12-07T11:27:48.739232+00:00",
        "meta_object_name": "HULIANWANG DIGUI 13A",
        "meta_object_id": "2025-258A",
        "meta_epoch": "2025-12-06T21:11:36.725280",
        "meta_mean_motion": 14.21774266,
        "meta_eccentricity": 0.00098728,
        "meta_inclination": 50.0171,
        "meta_ra_of_asc_node": 286.6631,
        "meta_arg_of_pericenter": 337.6929,
        "meta_mean_anomaly": 22.3553,
        "meta_ephemeris_type": 0,
        "meta_classification_type": "U",
        "meta_norad_cat_id": 66412,
        "meta_element_set_no": 999,
        "meta_rev_at_epoch": 382,
        "meta_bstar": 0.00032275141,
        "meta_mean_motion_dot": 5.56e-06,
        "meta_mean_motion_ddot": 0,
        "tle_line1": "1 66412U 25258A   25340.88306395  .00000556  00000+0  32275-3 0  9994",
        "tle_line2": "2 66412  50.0171 286.6631 0009872 337.6929  22.3553 14.21774266  3825"
      },
      "geometry": {
        "type": "Point",
        "coordinates": [
          94.7271579732836,
          11.060967487542914
        ]
      }
    },
    {
      "type": "Feature",
      "properties": {
        "norad_id": 66413,
        "name": "HULIANWANG DIGUI 13B",
        "group": "last-30-days",
        "lat": 41.31226401697971,
        "lon": 56.669338168444675,
        "alt_km": 821.604304999053,
        "timestamp": "2025-12-07T11:27:48.739243+00:00",
        "meta_object_name": "HULIANWANG DIGUI 13B",
        "meta_object_id": "2025-258B",
        "meta_epoch": "2025-12-06T23:05:07.655424",
        "meta_mean_motion": 14.21045394,
        "meta_eccentricity": 0.00109243,
        "meta_inclination": 49.9958,
        "meta_ra_of_asc_node": 286.3985,
        "meta_arg_of_pericenter": 343.9291,
        "meta_mean_anomaly": 16.1273,
        "meta_ephemeris_type": 0,
        "meta_classification_type": "U",
        "meta_norad_cat_id": 66413,
        "meta_element_set_no": 999,
        "meta_rev_at_epoch": 383,
        "meta_bstar": 0.00036123731,
        "meta_mean_motion_dot": 6.31e-06,
        "meta_mean_motion_ddot": 0,
        "tle_line1": "1 66413U 25258B   25340.96189416  .00000631  00000+0  36124-3 0  9998",
        "tle_line2": "2 66413  49.9958 286.3985 0010924 343.9291  16.1273 14.21045394  3831"
      },
      "geometry": {
        "type": "Point",
        "coordinates": [
          56.669338168444675,
          41.31226401697971
        ]
      }
    },
    {
      "type": "Feature",
      "properties": {
        "norad_id": 66414,
        "name": "HULIANWANG DIGUI 13C",
        "group": "last-30-days",
        "lat": 30.857960209996996,
        "lon": 74.10703035549533,
        "alt_km": 824.5606399587095,
        "timestamp": "2025-12-07T11:27:48.739268+00:00",
        "meta_object_name": "HULIANWANG DIGUI 13C",
        "meta_object_id": "2025-258C",
        "meta_epoch": "2025-12-06T23:00:14.068224",
        "meta_mean_motion": 14.21123758,
        "meta_eccentricity": 0.00106532,
        "meta_inclination": 50.0059,
        "meta_ra_of_asc_node": 286.3873,
        "meta_arg_of_pericenter": 337.9298,
        "meta_mean_anomaly": 22.1154,
        "meta_ephemeris_type": 0,
        "meta_classification_type": "U",
        "meta_norad_cat_id": 66414,
        "meta_element_set_no": 999,
        "meta_rev_at_epoch": 383,
        "meta_bstar": 0.00035939892,
        "meta_mean_motion_dot": 6.28e-06,
        "meta_mean_motion_ddot": 0,
        "tle_line1": "1 66414U 25258C   25340.95849616  .00000628  00000+0  35940-3 0  9994",
        "tle_line2": "2 66414  50.0059 286.3873 0010653 337.9298  22.1154 14.21123758  3838"
      },
      "geometry": {
        "type": "Point",
        "coordinates": [
          74.10703035549533,
          30.857960209996996
        ]
      }
    },
    {
      "type": "Feature",
      "properties": {
        "norad_id": 66415,
        "name": "HULIANWANG DIGUI 13D",
        "group": "last-30-days",
        "lat": 4.628094373070839,
        "lon": 100.24734389036736,
        "alt_km": 827.1091912744669,
        "timestamp": "2025-12-07T11:27:48.739279+00:00",
        "meta_object_name": "HULIANWANG DIGUI 13D",
        "meta_object_id": "2025-258D",
        "meta_epoch": "2025-12-06T22:50:27.313728",
        "meta_mean_motion": 14.21786432,
        "meta_eccentricity": 0.00110818,
        "meta_inclination": 50.0084,
        "meta_ra_of_asc_node": 286.3507,
        "meta_arg_of_pericenter": 343.5522,
        "meta_mean_anomaly": 16.5029,
        "meta_ephemeris_type": 0,
        "meta_classification_type": "U",
        "meta_norad_cat_id": 66415,
        "meta_element_set_no": 999,
        "meta_rev_at_epoch": 383,
        "meta_bstar": 0.00031006307,
        "meta_mean_motion_dot": 5.28e-06,
        "meta_mean_motion_ddot": 0,
        "tle_line1": "1 66415U 25258D   25340.95170502  .00000528  00000+0  31006-3 0  9994",
        "tle_line2": "2 66415  50.0084 286.3507 0011081 343.5522  16.5029 14.21786432  3832"
      },
      "geometry": {
        "type": "Point",
        "coordinates": [
          100.24734389036736,
          4.628094373070839
        ]
      }
    },
    {
      "type": "Feature",
      "properties": {
        "norad_id": 66416,
        "name": "HULIANWANG DIGUI 13E",
        "group": "last-30-days",
        "lat": 23.277349988303634,
        "lon": 83.01284641139634,
        "alt_km": 823.7675609177786,
        "timestamp": "2025-12-07T11:27:48.739289+00:00",
        "meta_object_name": "HULIANWANG DIGUI 13E",
        "meta_object_id": "2025-258E",
        "meta_epoch": "2025-12-06T06:05:20.650272",
        "meta_mean_motion": 14.21759879,
        "meta_eccentricity": 0.00106116,
        "meta_inclination": 50.0051,
        "meta_ra_of_asc_node": 289.3198,
        "meta_arg_of_pericenter": 342.4117,
        "meta_mean_anomaly": 17.6426,
        "meta_ephemeris_type": 0,
        "meta_classification_type": "U",
        "meta_norad_cat_id": 66416,
        "meta_element_set_no": 999,
        "meta_rev_at_epoch": 373,
        "meta_bstar": 0.00040565133,
        "meta_mean_motion_dot": 7.4e-06,
        "meta_mean_motion_ddot": 0,
        "tle_line1": "1 66416U 25258E   25340.25371123  .00000740  00000+0  40565-3 0  9996",
        "tle_line2": "2 66416  50.0051 289.3198 0010611 342.4117  17.6426 14.21759879  3739"
      },
      "geometry": {
        "type": "Point",
        "coordinates": [
          83.01284641139634,
          23.277349988303634
        ]
      }
    },
    {
      "type": "Feature",
      "properties": {
        "norad_id": 66417,
        "name": "HULIANWANG DIGUI 13F",
        "group": "last-30-days",
        "lat": 17.06455885390508,
        "lon": 89.2082914455282,
        "alt_km": 824.1908173736256,
        "timestamp": "2025-12-07T11:27:48.739300+00:00",
        "meta_object_name": "HULIANWANG DIGUI 13F",
        "meta_object_id": "2025-258F",
        "meta_epoch": "2025-12-06T14:29:09.906432",
        "meta_mean_motion": 14.21933133,
        "meta_eccentricity": 0.00102248,
        "meta_inclination": 50.0001,
        "meta_ra_of_asc_node": 287.8136,
        "meta_arg_of_pericenter": 341.4358,
        "meta_mean_anomaly": 18.618,
        "meta_ephemeris_type": 0,
        "meta_classification_type": "U",
        "meta_norad_cat_id": 66417,
        "meta_element_set_no": 999,
        "meta_rev_at_epoch": 378,
        "meta_bstar": 0.00035322897,
        "meta_mean_motion_dot": 6.26e-06,
        "meta_mean_motion_ddot": 0,
        "tle_line1": "1 66417U 25258F   25340.60358688  .00000626  00000+0  35323-3 0  9996",
        "tle_line2": "2 66417  50.0001 287.8136 0010224 341.4358  18.6180 14.21933133  3786"
      },
      "geometry": {
        "type": "Point",
        "coordinates": [
          89.2082914455282,
          17.06455885390508
        ]
      }
    }
  ]
}